ORBCOMM FM33            
1 25983U 99065D   25175.37735168  .00000602  00000+0  23447-3 0  9996
2 25983  45.0299 324.7736 0008428 107.2644 252.9128 14.40013031337106
ORBCOMM FM36            
1 25984U 99065E   25175.69906665  .00000637  00000+0  25483-3 0  9994
2 25984  45.0401  55.2949 0003771 350.3616   9.7160 14.38135934336095
ORBCOMM FM35            
1 25985U 99065F   25175.05850336  .00000531  00000+0  22458-3 0  9990
2 25985  45.0401  63.4184 0004200  58.1975 301.9282 14.37106307335774
ORBCOMM FM34            
1 25986U 99065G   25175.71955046  .00000497  00000+0  21316-3 0  9991
2 25986  45.0399  60.7580 0004766  19.6963 340.4068 14.37130094336026
ORBCOMM FM38            
1 33060U 08031A   25175.76691014  .00000916  00000+0  14332-3 0  9999
2 33060  48.4409 279.1251 0004167  70.5012 289.6353 14.81346218915866
ORBCOMM FM41            
1 33061U 08031B   25175.73346687  .00000997  00000+0  15499-3 0  9994
2 33061  48.4447 287.0891 0003485  51.5004 101.4987 14.80931737915790
ORBCOMM FM29            
1 33062U 08031C   25175.57116823  .00001077  00000+0  16486-3 0  9991
2 33062  48.4401 295.6627 0005169  52.0682  41.5851 14.81033816915631
ORBCOMM FM39            
1 33063U 08031D   25175.38906596  .00000920  00000+0  14959-3 0  9994
2 33063  48.4418 320.8812 0006340  22.2228 337.8960 14.79583646914868
